{
    "links": {
        "self": "http://www.neowsapp.com/rest/v1/neo/3530352?api_key=iIulBulltgU6a56xZRHN4H3l9WmuAYTsLGpBGhQ2"
    },
    "id": "3530352",
    "neo_reference_id": "3530352",
    "name": "(2010 MQ)",
    "designation": "2010 MQ",
    "nasa_jpl_url": "http://ssd.jpl.nasa.gov/sbdb.cgi?sstr=3530352",
    "absolute_magnitude_h": 19.9,
    "estimated_diameter": {
        "kilometers": {
            "estimated_diameter_min": 0.2783267681,
            "estimated_diameter_max": 0.6223575734
        },
        "meters": {
            "estimated_diameter_min": 278.3267680719,
            "estimated_diameter_max": 622.3575733667
        },
        "miles": {
            "estimated_diameter_min": 0.1729441822,
            "estimated_diameter_max": 0.3867149477
        },
        "feet": {
            "estimated_diameter_min": 913.1455937611,
            "estimated_diameter_max": 2041.8556210042
        }
    },
    "is_potentially_hazardous_asteroid": false,
    "close_approach_data": [
        {
            "close_approach_date": "2008-06-10",
            "close_approach_date_full": "2008-Jun-10 06:27",
            "epoch_date_close_approach": 1213079220000,
            "relative_velocity": {
                "kilometers_per_second": "33.9351180456",
                "kilometers_per_hour": "122166.4249640318",
                "miles_per_hour": "75909.465556123"
            },
            "miss_distance": {
                "astronomical": "0.435233867",
                "lunar": "169.305974263",
                "kilometers": "65110059.45506329",
                "miles": "40457514.905481802"
            },
            "orbiting_body": "Earth"
        },
        {
            "close_approach_date": "2010-06-27",
            "close_approach_date_full": "2010-Jun-27 04:56",
            "epoch_date_close_approach": 1277614560000,
            "relative_velocity": {
                "kilometers_per_second": "22.242318992",
                "kilometers_per_hour": "80072.3483713534",
                "miles_per_hour": "49753.8433533001"
            },
            "miss_distance": {
                "astronomical": "0.4028369674",
                "lunar": "156.7035803186",
                "kilometers": "60263552.280299438",
                "miles": "37446034.9912627244"
            },
            "orbiting_body": "Earth"
        },
        {
            "close_approach_date": "2021-02-06",
            "close_approach_date_full": "2021-Feb-06 09:35",
            "epoch_date_close_approach": 1612604100000,
            "relative_velocity": {
                "kilometers_per_second": "25.9779252588",
                "kilometers_per_hour": "93520.530931644",
                "miles_per_hour": "58110.0210113874"
            },
            "miss_distance": {
                "astronomical": "0.4737897764",
                "lunar": "184.3042230196",
                "kilometers": "70877941.377216268",
                "miles": "44041510.5398217784"
            },
            "orbiting_body": "Earth"
        }
    ],
    "orbital_data": {
        "orbit_id": "14",
        "orbit_determination_date": "2020-07-21 06:56:26",
        "first_observation_date": "2010-06-05",
        "last_observation_date": "2010-07-07",
        "data_arc_in_days": 32,
        "observations_used": 64,
        "orbit_uncertainty": "7",
        "minimum_orbit_intersection": ".363711",
        "jupiter_tisserand_invariant": "3.834",
        "epoch_osculation": "2459000.5",
        "eccentricity": ".7642186909968216",
        "semi_major_axis": "1.62520756185238",
        "inclination": "28.7055724975922",
        "ascending_node_longitude": "228.3637098846252",
        "orbital_period": "756.7661160196077",
        "perihelion_distance": ".3831935663354181",
        "perihelion_argument": "163.8389521219019",
        "aphelion_distance": "2.867221557369342",
        "perihelion_time": "2459215.195387507802",
        "mean_anomaly": "257.8676002179699",
        "mean_motion": ".4757084023443149",
        "equinox": "J2000",
        "orbit_class": {
            "orbit_class_type": "APO",
            "orbit_class_description": "Near-Earth asteroid orbits which cross the Earth’s orbit similar to that of 1862 Apollo",
            "orbit_class_range": "a (semi-major axis) > 1.0 AU; q (perihelion) < 1.017 AU"
        }
    },
    "is_sentry_object": false
}